STARLINK-31357          
1 59502U 24071U   26067.46083297  .00001700  00000+0  71267-4 0  9999
2 59502  43.0025 347.0335 0001013 264.2594  95.8142 15.27591756108016
LIME                    
1 62648U 25009AR  26068.73906781  .00013254  00000+0  47723-3 0  9995
2 62648  97.3985 151.4831 0001635  35.9029 324.2320 15.28703313 63766
